CCSDS_OMM_VERS = 2.0
CREATION_DATE  = 
ORIGINATOR     = 

OBJECT_NAME    = COSMOS 1933
OBJECT_ID      = 1988-020A
CENTER_NAME    = EARTH
REF_FRAME      = TEME
TIME_SYSTEM    = UTC
MEAN_ELEMENT_THEORY = SGP/SGP4

EPOCH          = 2026-03-03T12:39:52.113600
MEAN_MOTION    = 15.17917348
ECCENTRICITY   = .00033814
INCLINATION    = 82.5095
RA_OF_ASC_NODE = 257.0106
ARG_OF_PERICENTER = 205.7954
MEAN_ANOMALY   = 154.3112

EPHEMERIS_TYPE = 0
CLASSIFICATION_TYPE = U
NORAD_CAT_ID   = 18958
ELEMENT_SET_NO = 999
REV_AT_EPOCH   = 4929
BSTAR          = .25798585E-3
MEAN_MOTION_DOT = .5261E-4
MEAN_MOTION_DDOT = 0

CCSDS_OMM_VERS = 2.0
CREATION_DATE  = 
ORIGINATOR     = 

OBJECT_NAME    = SL-3 R/B
OBJECT_ID      = 1988-032B
CENTER_NAME    = EARTH
REF_FRAME      = TEME
TIME_SYSTEM    = UTC
MEAN_ELEMENT_THEORY = SGP/SGP4

EPOCH          = 2026-03-03T14:37:57.160704
MEAN_MOTION    = 15.19821647
ECCENTRICITY   = .0024093
INCLINATION    = 97.5180
RA_OF_ASC_NODE = 45.8824
ARG_OF_PERICENTER = 254.3073
MEAN_ANOMALY   = 105.5503

EPHEMERIS_TYPE = 0
CLASSIFICATION_TYPE = U
NORAD_CAT_ID   = 19046
ELEMENT_SET_NO = 999
REV_AT_EPOCH   = 5118
BSTAR          = .34101677E-3
MEAN_MOTION_DOT = .7293E-4
MEAN_MOTION_DDOT = 0

CCSDS_OMM_VERS = 2.0
CREATION_DATE  = 
ORIGINATOR     = 

OBJECT_NAME    = SL-16 R/B
OBJECT_ID      = 1988-039B
CENTER_NAME    = EARTH
REF_FRAME      = TEME
TIME_SYSTEM    = UTC
MEAN_ELEMENT_THEORY = SGP/SGP4

EPOCH          = 2026-03-03T11:56:44.899296
MEAN_MOTION    = 14.19615601
ECCENTRICITY   = .00224123
INCLINATION    = 71.0130
RA_OF_ASC_NODE = 81.6418
ARG_OF_PERICENTER = 343.4793
MEAN_ANOMALY   = 16.5599

EPHEMERIS_TYPE = 0
CLASSIFICATION_TYPE = U
NORAD_CAT_ID   = 19120
ELEMENT_SET_NO = 999
REV_AT_EPOCH   = 95750
BSTAR          = .60980234E-4
MEAN_MOTION_DOT = .81E-6
MEAN_MOTION_DDOT = 0

CCSDS_OMM_VERS = 2.0
CREATION_DATE  = 
ORIGINATOR     = 

OBJECT_NAME    = COSMOS 1953
OBJECT_ID      = 1988-050A
CENTER_NAME    = EARTH
REF_FRAME      = TEME
TIME_SYSTEM    = UTC
MEAN_ELEMENT_THEORY = SGP/SGP4

EPOCH          = 2026-03-03T08:10:40.571904
MEAN_MOTION    = 15.28384705
ECCENTRICITY   = .00121821
INCLINATION    = 82.5118
RA_OF_ASC_NODE = 164.6303
ARG_OF_PERICENTER = 143.2224
MEAN_ANOMALY   = 216.9854

EPHEMERIS_TYPE = 0
CLASSIFICATION_TYPE = U
NORAD_CAT_ID   = 19210
ELEMENT_SET_NO = 999
REV_AT_EPOCH   = 3681
BSTAR          = .36736167E-3
MEAN_MOTION_DOT = .10207E-3
MEAN_MOTION_DDOT = 0

CCSDS_OMM_VERS = 2.0
CREATION_DATE  = 
ORIGINATOR     = 

OBJECT_NAME    = SL-8 R/B
OBJECT_ID      = 1988-053B
CENTER_NAME    = EARTH
REF_FRAME      = TEME
TIME_SYSTEM    = UTC
MEAN_ELEMENT_THEORY = SGP/SGP4

EPOCH          = 2026-03-03T14:49:23.928384
MEAN_MOTION    = 14.38911518
ECCENTRICITY   = .00212899
INCLINATION    = 74.0469
RA_OF_ASC_NODE = 123.6591
ARG_OF_PERICENTER = 303.8485
MEAN_ANOMALY   = 168.0526

EPHEMERIS_TYPE = 0
CLASSIFICATION_TYPE = U
NORAD_CAT_ID   = 19257
ELEMENT_SET_NO = 999
REV_AT_EPOCH   = 97572
BSTAR          = .11674737E-3
MEAN_MOTION_DOT = .334E-5
MEAN_MOTION_DDOT = 0

CCSDS_OMM_VERS = 2.0
CREATION_DATE  = 
ORIGINATOR     = 

OBJECT_NAME    = COSMOS 1975
OBJECT_ID      = 1988-093A
CENTER_NAME    = EARTH
REF_FRAME      = TEME
TIME_SYSTEM    = UTC
MEAN_ELEMENT_THEORY = SGP/SGP4

EPOCH          = 2026-03-03T15:13:47.496000
MEAN_MOTION    = 15.27960127
ECCENTRICITY   = .00116166
INCLINATION    = 82.5198
RA_OF_ASC_NODE = 123.7633
ARG_OF_PERICENTER = 184.2896
MEAN_ANOMALY   = 175.8246

EPHEMERIS_TYPE = 0
CLASSIFICATION_TYPE = U
NORAD_CAT_ID   = 19573
ELEMENT_SET_NO = 999
REV_AT_EPOCH   = 1848
BSTAR          = .37065042E-3
MEAN_MOTION_DOT = .10163E-3
MEAN_MOTION_DDOT = 0

CCSDS_OMM_VERS = 2.0
CREATION_DATE  = 
ORIGINATOR     = 

OBJECT_NAME    = SL-14 R/B
OBJECT_ID      = 1988-093B
CENTER_NAME    = EARTH
REF_FRAME      = TEME
TIME_SYSTEM    = UTC
MEAN_ELEMENT_THEORY = SGP/SGP4

EPOCH          = 2026-03-03T11:26:45.133728
MEAN_MOTION    = 14.85647444
ECCENTRICITY   = .00221173
INCLINATION    = 82.5293
RA_OF_ASC_NODE = 47.8765
ARG_OF_PERICENTER = 60.9018
MEAN_ANOMALY   = 59.3481

EPHEMERIS_TYPE = 0
CLASSIFICATION_TYPE = U
NORAD_CAT_ID   = 19574
ELEMENT_SET_NO = 999
REV_AT_EPOCH   = 9
BSTAR          = .8365477E-4
MEAN_MOTION_DOT = .752E-5
MEAN_MOTION_DDOT = 0

CCSDS_OMM_VERS = 2.0
CREATION_DATE  = 
ORIGINATOR     = 

OBJECT_NAME    = SL-16 R/B
OBJECT_ID      = 1988-102B
CENTER_NAME    = EARTH
REF_FRAME      = TEME
TIME_SYSTEM    = UTC
MEAN_ELEMENT_THEORY = SGP/SGP4

EPOCH          = 2026-03-03T14:50:30.855552
MEAN_MOTION    = 14.16149413
ECCENTRICITY   = .00135748
INCLINATION    = 71.0000
RA_OF_ASC_NODE = 164.2707
ARG_OF_PERICENTER = 10.8408
MEAN_ANOMALY   = 349.3005

EPHEMERIS_TYPE = 0
CLASSIFICATION_TYPE = U
NORAD_CAT_ID   = 19650
ELEMENT_SET_NO = 999
REV_AT_EPOCH   = 92603
BSTAR          = .14309989E-4
MEAN_MOTION_DOT = -.19E-6
MEAN_MOTION_DDOT = 0

CCSDS_OMM_VERS = 2.0
CREATION_DATE  = 
ORIGINATOR     = 

OBJECT_NAME    = INTERCOSMOS 24
OBJECT_ID      = 1989-080A
CENTER_NAME    = EARTH
REF_FRAME      = TEME
TIME_SYSTEM    = UTC
MEAN_ELEMENT_THEORY = SGP/SGP4

EPOCH          = 2026-03-03T14:34:13.100448
MEAN_MOTION    = 12.59546815
ECCENTRICITY   = .11868332
INCLINATION    = 82.6033
RA_OF_ASC_NODE = 108.3653
ARG_OF_PERICENTER = 306.9522
MEAN_ANOMALY   = 42.8481

EPHEMERIS_TYPE = 0
CLASSIFICATION_TYPE = U
NORAD_CAT_ID   = 20261
ELEMENT_SET_NO = 999
REV_AT_EPOCH   = 66603
BSTAR          = .24956768E-3
MEAN_MOTION_DOT = .84E-5
MEAN_MOTION_DDOT = 0

CCSDS_OMM_VERS = 2.0
CREATION_DATE  = 
ORIGINATOR     = 

OBJECT_NAME    = SL-14 R/B
OBJECT_ID      = 1989-080C
CENTER_NAME    = EARTH
REF_FRAME      = TEME
TIME_SYSTEM    = UTC
MEAN_ELEMENT_THEORY = SGP/SGP4

EPOCH          = 2026-03-03T09:27:46.557504
MEAN_MOTION    = 12.50484175
ECCENTRICITY   = .12303271
INCLINATION    = 82.5971
RA_OF_ASC_NODE = 177.2264
ARG_OF_PERICENTER = 199.1354
MEAN_ANOMALY   = 155.9376

EPHEMERIS_TYPE = 0
CLASSIFICATION_TYPE = U
NORAD_CAT_ID   = 20262
ELEMENT_SET_NO = 999
REV_AT_EPOCH   = 65936
BSTAR          = .23453357E-3
MEAN_MOTION_DOT = .788E-5
MEAN_MOTION_DDOT = 0

CCSDS_OMM_VERS = 2.0
CREATION_DATE  = 
ORIGINATOR     = 

OBJECT_NAME    = DELTA 1 R/B
OBJECT_ID      = 1989-089B
CENTER_NAME    = EARTH
REF_FRAME      = TEME
TIME_SYSTEM    = UTC
MEAN_ELEMENT_THEORY = SGP/SGP4

EPOCH          = 2026-03-03T13:13:19.932960
MEAN_MOTION    = 14.50657398
ECCENTRICITY   = .00700902
INCLINATION    = 97.0709
RA_OF_ASC_NODE = 270.9659
ARG_OF_PERICENTER = 141.0935
MEAN_ANOMALY   = 219.5338

EPHEMERIS_TYPE = 0
CLASSIFICATION_TYPE = U
NORAD_CAT_ID   = 20323
ELEMENT_SET_NO = 999
REV_AT_EPOCH   = 89484
BSTAR          = .12779668E-3
MEAN_MOTION_DOT = .483E-5
MEAN_MOTION_DDOT = 0

CCSDS_OMM_VERS = 2.0
CREATION_DATE  = 
ORIGINATOR     = 

OBJECT_NAME    = ARIANE 40 R/B
OBJECT_ID      = 1990-005H
CENTER_NAME    = EARTH
REF_FRAME      = TEME
TIME_SYSTEM    = UTC
MEAN_ELEMENT_THEORY = SGP/SGP4

EPOCH          = 2026-03-03T15:05:29.427648
MEAN_MOTION    = 14.39865782
ECCENTRICITY   = .00094812
INCLINATION    = 98.3096
RA_OF_ASC_NODE = 123.4706
ARG_OF_PERICENTER = 217.3619
MEAN_ANOMALY   = 142.6911

EPHEMERIS_TYPE = 0
CLASSIFICATION_TYPE = U
NORAD_CAT_ID   = 20443
ELEMENT_SET_NO = 999
REV_AT_EPOCH   = 89193
BSTAR          = .12700017E-3
MEAN_MOTION_DOT = .357E-5
MEAN_MOTION_DDOT = 0

